{
  "type": "FeatureCollection",
  "features": [
    {
      "type": "Feature",
      "properties": {
        "norad_id": 43564,
        "name": "GSAT0221 (GALILEO 25)",
        "group": "galileo",
        "lat": 11.277248419413072,
        "lon": -5.719581387013988,
        "alt_km": 23221.27295932352,
        "timestamp": "2025-12-09T14:52:26.424971+00:00",
        "meta_object_name": "GSAT0221 (GALILEO 25)",
        "meta_object_id": "2018-060A",
        "meta_epoch": "2025-12-09T00:16:12.119232",
        "meta_mean_motion": 1.70475733,
        "meta_eccentricity": 0.00067013,
        "meta_inclination": 57.2286,
        "meta_ra_of_asc_node": 346.9182,
        "meta_arg_of_pericenter": 282.1379,
        "meta_mean_anomaly": 77.8037,
        "meta_ephemeris_type": 0,
        "meta_classification_type": "U",
        "meta_norad_cat_id": 43564,
        "meta_element_set_no": 999,
        "meta_rev_at_epoch": 4592,
        "meta_bstar": 0,
        "meta_mean_motion_dot": -8.7e-07,
        "meta_mean_motion_ddot": 0,
        "tle_line1": "1 43564U 18060A   25343.01125138 -.00000087  00000+0  00000+0 0  9999",
        "tle_line2": "2 43564  57.2286 346.9182 0006701 282.1379  77.8037  1.70475733 45922"
      },
      "geometry": {
        "type": "Point",
        "coordinates": [
          -5.719581387013988,
          11.277248419413072
        ]
      }
    },
    {
      "type": "Feature",
      "properties": {
        "norad_id": 43565,
        "name": "GSAT0222 (GALILEO 26)",
        "group": "galileo",
        "lat": -45.96603417071989,
        "lon": -151.32069539227007,
        "alt_km": 23210.537742543376,
        "timestamp": "2025-12-09T14:52:26.424982+00:00",
        "meta_object_name": "GSAT0222 (GALILEO 26)",
        "meta_object_id": "2018-060B",
        "meta_epoch": "2025-12-08T15:27:21.492000",
        "meta_mean_motion": 1.70475431,
        "meta_eccentricity": 0.00061741,
        "meta_inclination": 57.2322,
        "meta_ra_of_asc_node": 346.9312,
        "meta_arg_of_pericenter": 262.3002,
        "meta_mean_anomaly": 97.6467,
        "meta_ephemeris_type": 0,
        "meta_classification_type": "U",
        "meta_norad_cat_id": 43565,
        "meta_element_set_no": 999,
        "meta_rev_at_epoch": 4596,
        "meta_bstar": 0,
        "meta_mean_motion_dot": -8.6e-07,
        "meta_mean_motion_ddot": 0,
        "tle_line1": "1 43565U 18060B   25342.64399875 -.00000086  00000+0  00000+0 0  9998",
        "tle_line2": "2 43565  57.2322 346.9312 0006174 262.3002  97.6467  1.70475431 45962"
      },
      "geometry": {
        "type": "Point",
        "coordinates": [
          -151.32069539227007,
          -45.96603417071989
        ]
      }
    },
    {
      "type": "Feature",
      "properties": {
        "norad_id": 43566,
        "name": "GSAT0219 (GALILEO 23)",
        "group": "galileo",
        "lat": 54.97068127168655,
        "lon": 100.13234798970221,
        "alt_km": 23232.832700618263,
        "timestamp": "2025-12-09T14:52:26.424994+00:00",
        "meta_object_name": "GSAT0219 (GALILEO 23)",
        "meta_object_id": "2018-060C",
        "meta_epoch": "2025-12-07T16:36:27.181728",
        "meta_mean_motion": 1.7047564,
        "meta_eccentricity": 0.00057893,
        "meta_inclination": 57.2316,
        "meta_ra_of_asc_node": 346.9585,
        "meta_arg_of_pericenter": 285.9629,
        "meta_mean_anomaly": 73.992,
        "meta_ephemeris_type": 0,
        "meta_classification_type": "U",
        "meta_norad_cat_id": 43566,
        "meta_element_set_no": 999,
        "meta_rev_at_epoch": 4592,
        "meta_bstar": 0,
        "meta_mean_motion_dot": -8.4e-07,
        "meta_mean_motion_ddot": 0,
        "tle_line1": "1 43566U 18060C   25341.69198127 -.00000084  00000+0  00000+0 0  9998",
        "tle_line2": "2 43566  57.2316 346.9585 0005789 285.9629  73.9920  1.70475640 45924"
      },
      "geometry": {
        "type": "Point",
        "coordinates": [
          100.13234798970221,
          54.97068127168655
        ]
      }
    },
    {
      "type": "Feature",
      "properties": {
        "norad_id": 43567,
        "name": "GSAT0220 (GALILEO 24)",
        "group": "galileo",
        "lat": -26.84426392605854,
        "lon": -32.12291489061938,
        "alt_km": 23212.511151021095,
        "timestamp": "2025-12-09T14:52:26.425005+00:00",
        "meta_object_name": "GSAT0220 (GALILEO 24)",
        "meta_object_id": "2018-060D",
        "meta_epoch": "2025-12-07T07:49:54.342624",
        "meta_mean_motion": 1.70475454,
        "meta_eccentricity": 0.00061757,
        "meta_inclination": 57.2312,
        "meta_ra_of_asc_node": 346.9681,
        "meta_arg_of_pericenter": 282.9528,
        "meta_mean_anomaly": 76.9979,
        "meta_ephemeris_type": 0,
        "meta_classification_type": "U",
        "meta_norad_cat_id": 43567,
        "meta_element_set_no": 999,
        "meta_rev_at_epoch": 4590,
        "meta_bstar": 0,
        "meta_mean_motion_dot": -8.3e-07,
        "meta_mean_motion_ddot": 0,
        "tle_line1": "1 43567U 18060D   25341.32632341 -.00000083  00000+0  00000+0 0  9999",
        "tle_line2": "2 43567  57.2312 346.9681 0006175 282.9528  76.9979  1.70475454 45901"
      },
      "geometry": {
        "type": "Point",
        "coordinates": [
          -32.12291489061938,
          -26.84426392605854
        ]
      }
    },
    {
      "type": "Feature",
      "properties": {
        "norad_id": 49809,
        "name": "GSAT0223 (GALILEO 27)",
        "group": "galileo",
        "lat": 45.61324893238661,
        "lon": 27.970638513439933,
        "alt_km": 23230.109386681524,
        "timestamp": "2025-12-09T14:52:26.425016+00:00",
        "meta_object_name": "GSAT0223 (GALILEO 27)",
        "meta_object_id": "2021-116A",
        "meta_epoch": "2025-12-08T12:32:15.823104",
        "meta_mean_motion": 1.70475635,
        "meta_eccentricity": 0.00046796,
        "meta_inclination": 57.2201,
        "meta_ra_of_asc_node": 346.8263,
        "meta_arg_of_pericenter": 251.0345,
        "meta_mean_anomaly": 213.7248,
        "meta_ephemeris_type": 0,
        "meta_classification_type": "U",
        "meta_norad_cat_id": 49809,
        "meta_element_set_no": 999,
        "meta_rev_at_epoch": 2493,
        "meta_bstar": 0,
        "meta_mean_motion_dot": -8.6e-07,
        "meta_mean_motion_ddot": 0,
        "tle_line1": "1 49809U 21116A   25342.52240536 -.00000086  00000+0  00000+0 0  9997",
        "tle_line2": "2 49809  57.2201 346.8263 0004679 251.0345 213.7248  1.70475635 24930"
      },
      "geometry": {
        "type": "Point",
        "coordinates": [
          27.970638513439933,
          45.61324893238661
        ]
      }
    },
    {
      "type": "Feature",
      "properties": {
        "norad_id": 49810,
        "name": "GSAT0224 (GALILEO 28)",
        "group": "galileo",
        "lat": 7.722940455143594,
        "lon": 161.78002006191667,
        "alt_km": 23220.005977895366,
        "timestamp": "2025-12-09T14:52:26.425027+00:00",
        "meta_object_name": "GSAT0224 (GALILEO 28)",
        "meta_object_id": "2021-116B",
        "meta_epoch": "2025-12-07T13:56:35.698272",
        "meta_mean_motion": 1.7047563,
        "meta_eccentricity": 0.00040182,
        "meta_inclination": 57.2213,
        "meta_ra_of_asc_node": 346.8506,
        "meta_arg_of_pericenter": 254.5241,
        "meta_mean_anomaly": 105.0474,
        "meta_ephemeris_type": 0,
        "meta_classification_type": "U",
        "meta_norad_cat_id": 49810,
        "meta_element_set_no": 999,
        "meta_rev_at_epoch": 2493,
        "meta_bstar": 0,
        "meta_mean_motion_dot": -8.4e-07,
        "meta_mean_motion_ddot": 0,
        "tle_line1": "1 49810U 21116B   25341.58096873 -.00000084  00000+0  00000+0 0  9995",
        "tle_line2": "2 49810  57.2213 346.8506 0004018 254.5241 105.0474  1.70475630 24934"
      },
      "geometry": {
        "type": "Point",
        "coordinates": [
          161.78002006191667,
          7.722940455143594
        ]
      }
    },
    {
      "type": "Feature",
      "properties": {
        "norad_id": 59598,
        "name": "GSAT0225 (GALILEO 29)",
        "group": "galileo",
        "lat": 13.573069796712034,
        "lon": -83.35769907023713,
        "alt_km": 23214.616825886533,
        "timestamp": "2025-12-09T14:52:26.425038+00:00",
        "meta_object_name": "GSAT0225 (GALILEO 29)",
        "meta_object_id": "2024-079A",
        "meta_epoch": "2025-12-07T13:01:48.128160",
        "meta_mean_motion": 1.70474573,
        "meta_eccentricity": 0.0002046,
        "meta_inclination": 54.9986,
        "meta_ra_of_asc_node": 106.4402,
        "meta_arg_of_pericenter": 173.6326,
        "meta_mean_anomaly": 155.0404,
        "meta_ephemeris_type": 0,
        "meta_classification_type": "U",
        "meta_norad_cat_id": 59598,
        "meta_element_set_no": 999,
        "meta_rev_at_epoch": 1004,
        "meta_bstar": 0,
        "meta_mean_motion_dot": 7e-08,
        "meta_mean_motion_ddot": 0,
        "tle_line1": "1 59598U 24079A   25341.54291815  .00000007  00000+0  00000+0 0  9993",
        "tle_line2": "2 59598  54.9986 106.4402 0002046 173.6326 155.0404  1.70474573 10048"
      },
      "geometry": {
        "type": "Point",
        "coordinates": [
          -83.35769907023713,
          13.573069796712034
        ]
      }
    }
  ]
}